ONEWEB-0055             
1 45443U 20020V   20321.91667824  .00000014  00000-0  00000+0 0  9999
2 45443  87.9128  66.3199 0025361 166.9978 315.4654 13.39522534 35434
ONEWEB-0093             
1 45444U 20020W   20321.91667824  .00000014  00000-0  00000+0 0  9990
2 45444  87.9370  66.3663 0028348 163.7231 155.7948 13.49322344 35490
ONEWEB-0029             
1 45445U 20020X   20321.91667824  .00000014  00000-0  00000+0 0  9991
2 45445  87.9286  66.3604 0027750 165.9887 298.0889 13.46998402 35440
ONEWEB-0068             
1 45446U 20020Y   20321.91667824  .00000014  00000-0  00000+0 0  9992
2 45446  87.9088  66.3367 0027493 167.1196 294.8929 13.35407636 35427
ONEWEB-0046             
1 45447U 20020Z   20321.91667824  .00000014  00000-0  00000+0 0  9993
2 45447  87.9601  66.3494 0024760 169.2224 291.7919 13.47433304 35439
ONEWEB-0063             
1 45448U 20020AA  20321.91667824  .00000015  00000-0  00000+0 0  9995
2 45448  88.0317  66.3049 0029526 169.4644  58.1329 13.64967899 35468
ONEWEB-0019             
1 45449U 20020AB  20321.91667824 -.00044032  00000-0 -84929-1 0  9999
2 45449  87.9424  66.3427 0026044 174.2122 159.2951 13.37128018 35368
ONEWEB-0094             
1 45450U 20020AC  20321.91667824 -.00062099  00000-0 -63922-2 0  9995
2 45450  87.5797  62.9354 0028515 148.6633  52.6163 14.90422661 35897
ONEWEB-0087             
1 45451U 20020AD  20321.91667824  .00000014  00000-0  00000+0 0  9998
2 45451  87.9197  66.3425 0026403 175.9667 149.6010 13.38326656 35387
ONEWEB-0082             
1 45452U 20020AE  20321.91667824  .00000014  00000-0  00000+0 0  9999
2 45452  87.9651  66.3565 0028147 175.1746 310.1001 13.52060784 35451
ONEWEB-0050             
1 45453U 20020AF  20321.58334491  .00021872  00000-0  19996-2 0  9996
2 45453  87.5442  62.4159 0027659 145.4120  47.5089 14.94613032  1755
ONEWEB-0034             
1 45454U 20020AG  20321.91667824  .00000014  00000-0  00000+0 0  9991
2 45454  87.9270  66.3361 0024505 175.7300 188.1990 13.38103434 35410
ONEWEB-0060             
1 45455U 20020AH  20321.91667824  .00000014  00000-0  00000+0 0  9992
2 45455  88.0293  66.3156 0022965 179.0741 251.4739 13.48808835 35361
ONEWEB-0086             
1 45456U 20020AJ  20321.91667824  .00000014  00000-0  00000+0 0  9993
2 45456  88.0307  66.3206 0022485 173.4966  11.5843 13.60647660 35382
ONEWEB-0088             
1 45457U 20020AK  20321.91667824  .00000014  00000-0  00000+0 0  9994
2 45457  87.9414  66.3531 0022845 177.0946 189.5119 13.35932389 35366
